NORAD_CAT_ID,OBJECT_NAME,OBJECT_TYPE,EPOCH,MEAN_MOTION,ECCENTRICITY,INCLINATION,RA_OF_ASC_NODE,ARG_OF_PERICENTER,MEAN_ANOMALY,BSTAR,MEAN_MOTION_DOT,MEAN_MOTION_DDOT,TLE_LINE0,TLE_LINE1,TLE_LINE2,SEMIMAJOR_AXIS,PERIOD,APOGEE,PERIGEE,DECAYED
54084.0,STARLINK-5183,PAYLOAD,2023-05-08 23:13:50,15.08858086,9.79e-05,53.2161,303.7739,93.7241,266.3864,0.00052751,8.122e-05,0.0,0 STARLINK-5183,1 54084U 22136AK  23128.96795035  .00008122  00000-0  52751-3 0  9991,2 54084  53.2161 303.7739 0000979  93.7241 266.3864 15.08858086 31103,6917.825,95.436,540.367,539.013,0.0
54084.0,STARLINK-5183,PAYLOAD,2023-05-10 03:50:47,15.08835897,7.8e-05,53.2171,298.4209,112.7754,247.3321,-6.8321e-05,-1.375e-05,0.0,0 STARLINK-5183,1 54084U 22136AK  23130.16027424 -.00001375  00000-0 -68321-4 0  9992,2 54084  53.2171 298.4209 0000780 112.7754 247.3321 15.08835897 30805,6917.893,95.438,540.298,539.218,0.0
54084.0,STARLINK-5183,PAYLOAD,2023-05-10 18:09:16,15.08841912,9.16e-05,53.2162,295.7448,101.7059,258.4036,0.0004389,6.705e-05,0.0,0 STARLINK-5183,1 54084U 22136AK  23130.75643697  .00006705  00000-0  43890-3 0  9996,2 54084  53.2162 295.7448 0000916 101.7059 258.4036 15.08841912 30897,6917.875,95.437,540.373,539.106,0.0
54084.0,STARLINK-5183,PAYLOAD,2023-05-11 03:41:35,15.08837026,0.0001205,53.2168,293.9565,79.4286,280.6842,0.00024622,3.633e-05,0.0,0 STARLINK-5183,1 54084U 22136AK  23131.15388061  .00003633  00000-0  24622-3 0  9991,2 54084  53.2168 293.9565 0001205  79.4286 280.6842 15.08837026 30958,6917.889,95.438,540.588,538.921,0.0
54084.0,STARLINK-5183,PAYLOAD,2023-05-11 16:24:40,15.0884342,0.0001065,53.2166,291.579,83.6761,276.4353,0.00037768,5.729e-05,0.0,0 STARLINK-5183,1 54084U 22136AK  23131.68380064  .00005729  00000-0  37768-3 0  9997,2 54084  53.2166 291.5790 0001065  83.6761 276.4353 15.08843420 31517,6917.87,95.437,540.472,538.998,0.0
54084.0,STARLINK-5183,PAYLOAD,2023-05-12 03:32:22,15.08842506,8.46e-05,53.215,289.5001,97.1985,262.9103,0.00036545,5.534e-05,0.0,0 STARLINK-5183,1 54084U 22136AK  23132.14747994  .00005534  00000-0  36545-3 0  9994,2 54084  53.2150 289.5001 0000846  97.1985 262.9103 15.08842506 31108,6917.873,95.437,540.323,539.152,0.0
54084.0,STARLINK-5183,PAYLOAD,2023-05-12 16:15:27,15.08837632,0.0001195,53.2165,287.1221,93.9731,266.1398,9.1664e-05,1.171e-05,0.0,0 STARLINK-5183,1 54084U 22136AK  23132.67740410  .00001171  00000-0  91664-4 0  9995,2 54084  53.2165 287.1221 0001195  93.9731 266.1398 15.08837632 31660,6917.888,95.438,540.579,538.926,0.0
54084.0,STARLINK-5183,PAYLOAD,2023-05-13 03:23:09,15.0884099,0.0001221,53.2172,285.0357,82.3758,277.7373,9.9984e-05,1.304e-05,0.0,0 STARLINK-5183,1 54084U 22136AK  23133.14108365  .00001304  00000-0  99984-4 0  9996,2 54084  53.2172 285.0357 0001221  82.3758 277.7373 15.08840990 31253,6917.877,95.437,540.587,538.898,0.0
54084.0,STARLINK-5183,PAYLOAD,2023-05-13 17:41:37,15.0884635,9.98e-05,53.2151,282.3603,86.4356,273.675,0.00019978,2.894e-05,0.0,0 STARLINK-5183,1 54084U 22136AK  23133.73724143  .00002894  00000-0  19978-3 0  9998,2 54084  53.2151 282.3603 0000998  86.4356 273.6750 15.08846350 31343,6917.861,95.437,540.416,539.036,0.0
54084.0,STARLINK-5183,PAYLOAD,2023-05-14 03:13:56,15.08839775,9.27e-05,53.2148,280.5789,89.915,270.1949,0.00011259,1.505e-05,0.0,0 STARLINK-5183,1 54084U 22136AK  23134.13468434  .00001505  00000-0  11259-3 0  9993,2 54084  53.2148 280.5789 0000927  89.9150 270.1949 15.08839775 31880,6917.881,95.438,540.387,539.105,0.0
54084.0,STARLINK-5183,PAYLOAD,2023-05-14 14:21:38,15.08837681,0.0001288,53.2148,278.4938,93.8525,266.2614,0.00011199,1.495e-05,0.0,0 STARLINK-5183,1 54084U 22136AK  23134.59836785  .00001495  00000-0  11199-3 0  9992,2 54084  53.2148 278.4938 0001288  93.8525 266.2614 15.08837681 31477,6917.887,95.438,540.644,538.861,0.0
54084.0,STARLINK-5183,PAYLOAD,2023-05-14 19:07:48,15.0884074,0.0001228,53.2161,277.6035,88.4994,271.6139,0.00013466,1.856e-05,0.0,0 STARLINK-5183,1 54084U 22136AK  23134.79708722  .00001856  00000-0  13466-3 0  9993,2 54084  53.2161 277.6035 0001228  88.4994 271.6139 15.08840740 31501,6917.878,95.438,540.593,538.894,0.0
54084.0,STARLINK-5183,PAYLOAD,2023-05-15 03:04:44,15.08838284,0.0001165,53.2154,276.117,86.0312,274.0814,9.8381e-05,1.278e-05,0.0,0 STARLINK-5183,1 54084U 22136AK  23135.12828885  .00001278  00000-0  98381-4 0  9992,2 54084  53.2154 276.1170 0001165  86.0312 274.0814 15.08838284 32031,6917.886,95.438,540.557,538.945,0.0
54084.0,STARLINK-5183,PAYLOAD,2023-05-15 12:37:02,15.08841296,0.0001198,53.216,274.3323,88.0161,272.0968,0.00016178,2.288e-05,0.0,0 STARLINK-5183,1 54084U 22136AK  23135.52572845  .00002288  00000-0  16178-3 0  9993,2 54084  53.2160 274.3323 0001198  88.0161 272.0968 15.08841296 31616,6917.876,95.437,540.57,538.913,0.0
54084.0,STARLINK-5183,PAYLOAD,2023-05-15 15:47:49,15.08844669,0.0001056,53.2165,273.7367,91.5564,268.555,0.00020096,2.912e-05,0.0,0 STARLINK-5183,1 54084U 22136AK  23135.65820641  .00002912  00000-0  20096-3 0  9995,2 54084  53.2165 273.7367 0001056  91.5564 268.5550 15.08844669 31637,6917.866,95.437,540.462,539.001,0.0
54084.0,STARLINK-5183,PAYLOAD,2023-05-16 12:27:50,15.08839403,0.0001155,53.2161,269.8719,88.176,271.9364,0.00011172,1.491e-05,0.0,0 STARLINK-5183,1 54084U 22136AK  23136.51932981  .00001491  00000-0  11172-3 0  9998,2 54084  53.2161 269.8719 0001155  88.1760 271.9364 15.08839403 32249,6917.882,95.438,540.546,538.948,0.0
54084.0,STARLINK-5183,PAYLOAD,2023-05-16 18:49:22,15.0884374,0.0001095,53.2163,268.682,88.6624,271.4494,0.00011732,1.58e-05,0.0,0 STARLINK-5183,1 54084U 22136AK  23136.78428729  .00001580  00000-0  11732-3 0  9998,2 54084  53.2163 268.6820 0001095  88.6624 271.4494 15.08843740 31807,6917.869,95.437,540.491,538.976,0.0
54084.0,STARLINK-5183,PAYLOAD,2023-05-17 15:29:23,15.0884225,0.000117,53.217,264.8137,97.9318,262.1807,8.6451e-05,1.088e-05,0.0,0 STARLINK-5183,1 54084U 22136AK  23137.64540776  .00001088  00000-0  86451-4 0  9995,2 54084  53.2170 264.8137 0001170  97.9318 262.1807 15.08842250 32419,6917.874,95.437,540.548,538.929,0.0
54084.0,STARLINK-5183,PAYLOAD,2023-05-18 12:09:24,15.08841638,0.0001229,53.2172,260.9523,111.8466,248.2657,5.9324e-06,-1.93e-06,0.0,0 STARLINK-5183,1 54084U 22136AK  23138.50653104 -.00000193  00000-0  59324-5 0  9998,2 54084  53.2172 260.9523 0001229 111.8466 248.2657 15.08841638 32060,6917.875,95.437,540.591,538.89,0.0
54084.0,STARLINK-5183,PAYLOAD,2023-05-18 16:55:33,15.08842732,0.0001077,53.2178,260.0608,99.2907,260.8207,3.1576e-05,2.15e-06,0.0,0 STARLINK-5183,1 54084U 22136AK  23138.70524931  .00000215  00000-0  31576-4 0  9997,2 54084  53.2178 260.0608 0001077  99.2907 260.8207 15.08842732 32574,6917.872,95.437,540.482,538.992,0.0
54084.0,STARLINK-5183,PAYLOAD,2023-05-18 18:30:56,15.088426,0.0001055,53.2166,259.7629,98.2984,261.8128,4.5693e-05,4.4e-06,0.0,0 STARLINK-5183,1 54084U 22136AK  23138.77148901  .00000440  00000-0  45693-4 0  9998,2 54084  53.2166 259.7629 0001055  98.2984 261.8128 15.08842600 32105,6917.872,95.437,540.467,539.008,0.0
54084.0,STARLINK-5183,PAYLOAD,2023-05-19 12:00:11,15.08836403,0.0001036,53.2162,256.4924,103.7076,256.4031,5.0417e-05,5.15e-06,0.0,0 STARLINK-5183,1 54084U 22136AK  23139.50013409  .00000515  00000-0  50417-4 0  9997,2 54084  53.2162 256.4924 0001036 103.7076 256.4031 15.08836403 32697,6917.891,95.438,540.473,539.04,0.0
54084.0,STARLINK-5183,PAYLOAD,2023-05-20 16:37:06,15.08859014,0.0001156,53.216,251.1378,85.4954,274.617,0.00031027,4.656e-05,0.0,0 STARLINK-5183,1 54084U 22136AK  23140.69244049  .00004656  00000-0  31027-3 0  9990,2 54084  53.2160 251.1378 0001156  85.4954 274.6170 15.08859014 32873,6917.822,95.436,540.487,538.888,0.0
54084.0,STARLINK-5183,PAYLOAD,2023-05-21 00:34:03,15.08842408,0.0001195,53.216,249.6532,86.133,273.9799,0.00010719,1.419e-05,0.0,0 STARLINK-5183,1 54084U 22136AK  23141.02364835  .00001419  00000-0  10719-3 0  9993,2 54084  53.2160 249.6532 0001195  86.1330 273.9799 15.08842408 32920,6917.873,95.437,540.565,538.911,0.0
54084.0,STARLINK-5183,PAYLOAD,2023-05-21 11:41:45,15.08835747,0.0001011,53.2157,247.5712,91.3425,268.7683,2.883e-05,1.71e-06,0.0,0 STARLINK-5183,1 54084U 22136AK  23141.48733225  .00000171  00000-0  28830-4 0  9994,2 54084  53.2157 247.5712 0001011  91.3425 268.7683 15.08835747 32510,6917.893,95.438,540.458,539.059,0.0
54084.0,STARLINK-5183,PAYLOAD,2023-05-21 13:17:08,15.08840779,0.000105,53.2162,247.2726,103.509,256.602,6.5418e-05,7.54e-06,0.0,0 STARLINK-5183,1 54084U 22136AK  23141.55356962  .00000754  00000-0  65418-4 0  9991,2 54084  53.2162 247.2726 0001050 103.5090 256.6020 15.08840779 32528,6917.878,95.438,540.469,539.017,0.0
54084.0,STARLINK-5183,PAYLOAD,2023-05-22 00:24:50,15.08840335,0.0001054,53.216,245.1916,98.3808,261.7304,7.2978e-05,8.74e-06,0.0,0 STARLINK-5183,1 54084U 22136AK  23142.01725090  .00000874  00000-0  72978-4 0  9997,2 54084  53.2160 245.1916 0001054  98.3808 261.7304 15.08840335 33077,6917.879,95.438,540.474,539.015,0.0
54084.0,STARLINK-5183,PAYLOAD,2023-05-22 13:07:55,15.08842495,0.0001023,53.2155,242.8134,92.7584,267.3525,0.00010859,1.441e-05,0.0,0 STARLINK-5183,1 54084U 22136AK  23142.54717052  .00001441  00000-0  10859-3 0  9994,2 54084  53.2155 242.8134 0001023  92.7584 267.3525 15.08842495 32673,6917.873,95.437,540.445,539.03,0.0
54084.0,STARLINK-5183,PAYLOAD,2023-05-23 11:23:20,15.08834273,0.0001034,53.2153,238.6496,105.5561,254.5546,0.0001348,1.858e-05,0.0,0 STARLINK-5183,1 54084U 22136AK  23143.47453755  .00001858  00000-0  13480-3 0  9999,2 54084  53.2153 238.6496 0001034 105.5561 254.5546 15.08834273 33290,6917.898,95.438,540.478,539.048,0.0
54084.0,STARLINK-5183,PAYLOAD,2023-05-23 12:58:43,15.08836462,0.0001139,53.2155,238.3506,112.1815,247.9298,9.1139e-05,1.163e-05,0.0,0 STARLINK-5183,1 54084U 22136AK  23143.54077626  .00001163  00000-0  91139-4 0  9993,2 54084  53.2155 238.3506 0001139 112.1815 247.9298 15.08836462 32823,6917.891,95.438,540.544,538.968,0.0
